start=new Date('2021-10-22T00:00:00.000Z').valueOf();
sats=[{"MEAN_MOTION_DDOT":"0.0000000000000","GP_ID":"187840681","FILE":"3176920","SITE":"AFETR","MEAN_ANOMALY":"298.8880","OBJECT_ID":"2021-017BC","INCLINATION":"53.0546","BSTAR":"0.00005829100000","REF_FRAME":"TEME","MEAN_ELEMENT_THEORY":"SGP4","NORAD_CAT_ID":"47772","COUNTRY_CODE":"US","OBJECT_TYPE":"PAYLOAD","CLASSIFICATION_TYPE":"U","EPOCH":"2021-10-21T22:22:21.495072","LAUNCH_DATE":"2021-03-04","SEMIMAJOR_AXIS":"6925.357","PERIAPSIS":"545.928","ELEMENT_SET_NO":"999","DECAY_DATE":null,"ARG_OF_PERICENTER":"61.2296","TLE_LINE2":"2 47772  53.0546 203.1979 0001868  61.2296 298.8880 15.06397231 36472","MEAN_MOTION":"15.06397231","APOAPSIS":"548.516","MEAN_MOTION_DOT":"0.00000587","REV_AT_EPOCH":"3647","TLE_LINE1":"1 47772U 21017BC  21294.93219323  .00000587  00000-0  58291-4 0  9997","RA_OF_ASC_NODE":"203.1979","EPHEMERIS_TYPE":"0","TIME_SYSTEM":"UTC","OBJECT_NAME":"STARLINK-2195","CENTER_NAME":"EARTH","PERIOD":"95.592","ECCENTRICITY":"0.00018680","RCS_SIZE":"LARGE"},{"CLASSIFICATION_TYPE":"U","OBJECT_TYPE":"PAYLOAD","COUNTRY_CODE":"US","NORAD_CAT_ID":"47773","MEAN_ELEMENT_THEORY":"SGP4","REF_FRAME":"TEME","BSTAR":"0.00007136300000","INCLINATION":"53.0548","OBJECT_ID":"2021-017BD","MEAN_ANOMALY":"288.5995","SITE":"AFETR","FILE":"3176920","GP_ID":"187840926","MEAN_MOTION_DDOT":"0.0000000000000","RCS_SIZE":"LARGE","ECCENTRICITY":"0.00017390","PERIOD":"95.593","CENTER_NAME":"EARTH","OBJECT_NAME":"STARLINK-2196","EPHEMERIS_TYPE":"0","TIME_SYSTEM":"UTC","RA_OF_ASC_NODE":"203.2207","TLE_LINE1":"1 47773U 21017BD  21294.92851799  .00000781  00000-0  71363-4 0  9997","REV_AT_EPOCH":"3646","APOAPSIS":"548.450","MEAN_MOTION_DOT":"0.00000781","TLE_LINE2":"2 47773  53.0548 203.2207 0001739  71.5183 288.5995 15.06389604 36463","MEAN_MOTION":"15.06389604","ARG_OF_PERICENTER":"71.5183","DECAY_DATE":null,"PERIAPSIS":"546.041","ELEMENT_SET_NO":"999","LAUNCH_DATE":"2021-03-04","EPOCH":"2021-10-21T22:17:03.954336","SEMIMAJOR_AXIS":"6925.380"},{"MEAN_MOTION_DDOT":"0.0000000000000","GP_ID":"187840179","FILE":"3176920","SITE":"AFETR","MEAN_ANOMALY":"284.2819","OBJECT_ID":"2021-017BE","INCLINATION":"53.0549","BSTAR":"0.00009721500000","REF_FRAME":"TEME","MEAN_ELEMENT_THEORY":"SGP4","NORAD_CAT_ID":"47774","COUNTRY_CODE":"US","OBJECT_TYPE":"PAYLOAD","CLASSIFICATION_TYPE":"U","LAUNCH_DATE":"2021-03-04","EPOCH":"2021-10-21T22:11:45.061440","SEMIMAJOR_AXIS":"6925.382","ELEMENT_SET_NO":"999","PERIAPSIS":"546.301","DECAY_DATE":null,"TLE_LINE2":"2 47774  53.0549 203.2333 0001366  75.8321 284.2819 15.06389160 36478","ARG_OF_PERICENTER":"75.8321","MEAN_MOTION":"15.06389160","APOAPSIS":"548.193","MEAN_MOTION_DOT":"0.00001166","REV_AT_EPOCH":"3647","TLE_LINE1":"1 47774U 21017BE  21294.92482710  .00001166  00000-0  97215-4 0  9993","RA_OF_ASC_NODE":"203.2333","EPHEMERIS_TYPE":"0","TIME_SYSTEM":"UTC","OBJECT_NAME":"STARLINK-2197","CENTER_NAME":"EARTH","PERIOD":"95.593","ECCENTRICITY":"0.00013660","RCS_SIZE":"LARGE"},{"CENTER_NAME":"EARTH","PERIOD":"95.592","OBJECT_NAME":"STARLINK-2198","RCS_SIZE":"LARGE","ECCENTRICITY":"0.00018320","DECAY_DATE":null,"MEAN_MOTION":"15.06396877","TLE_LINE2":"2 47775  53.0556 203.2029 0001832  70.7213 289.3974 15.06396877 36528","ARG_OF_PERICENTER":"70.7213","EPOCH":"2021-10-21T22:27:40.916736","LAUNCH_DATE":"2021-03-04","SEMIMAJOR_AXIS":"6925.358","PERIAPSIS":"545.954","ELEMENT_SET_NO":"999","EPHEMERIS_TYPE":"0","TIME_SYSTEM":"UTC","RA_OF_ASC_NODE":"203.2029","APOAPSIS":"548.492","MEAN_MOTION_DOT":"-0.00000363","TLE_LINE1":"1 47775U 21017BF  21294.93589024 -.00000363  00000-0 -54879-5 0  9991","REV_AT_EPOCH":"3652","REF_FRAME":"TEME","MEAN_ELEMENT_THEORY":"SGP4","BSTAR":"-0.00000548790000","INCLINATION":"53.0556","CLASSIFICATION_TYPE":"U","COUNTRY_CODE":"US","NORAD_CAT_ID":"47775","OBJECT_TYPE":"PAYLOAD","GP_ID":"187839930","MEAN_MOTION_DDOT":"0.0000000000000","OBJECT_ID":"2021-017BF","SITE":"AFETR","FILE":"3176920","MEAN_ANOMALY":"289.3974"},{"OBJECT_NAME":"STARLINK-2209","CENTER_NAME":"EARTH","PERIOD":"95.593","ECCENTRICITY":"0.00016350","RCS_SIZE":"LARGE","EPOCH":"2021-10-21T21:30:36.440640","LAUNCH_DATE":"2021-03-04","SEMIMAJOR_AXIS":"6925.380","PERIAPSIS":"546.113","ELEMENT_SET_NO":"999","DECAY_DATE":null,"MEAN_MOTION":"15.06389664","TLE_LINE2":"2 47776  53.0558 193.3731 0001635  74.7264 285.3905 15.06389664 36628","ARG_OF_PERICENTER":"74.7264","MEAN_MOTION_DOT":"0.00001237","APOAPSIS":"548.378","TLE_LINE1":"1 47776U 21017BG  21294.89625510  .00001237  00000-0  10194-3 0  9997","REV_AT_EPOCH":"3662","RA_OF_ASC_NODE":"193.3731","EPHEMERIS_TYPE":"0","TIME_SYSTEM":"UTC","INCLINATION":"53.0558","BSTAR":"0.00010194000000","REF_FRAME":"TEME","MEAN_ELEMENT_THEORY":"SGP4","NORAD_CAT_ID":"47776","COUNTRY_CODE":"US","OBJECT_TYPE":"PAYLOAD","CLASSIFICATION_TYPE":"U","MEAN_MOTION_DDOT":"0.0000000000000","GP_ID":"187841181","FILE":"3176920","SITE":"AFETR","MEAN_ANOMALY":"285.3905","OBJECT_ID":"2021-017BG"},{"GP_ID":"187841426","MEAN_MOTION_DDOT":"0.0000000000000","OBJECT_ID":"2021-017BH","MEAN_ANOMALY":"281.6126","SITE":"AFETR","FILE":"3176920","MEAN_ELEMENT_THEORY":"SGP4","REF_FRAME":"TEME","BSTAR":"-0.00001937400000","INCLINATION":"53.0563","CLASSIFICATION_TYPE":"U","OBJECT_TYPE":"PAYLOAD","COUNTRY_CODE":"US","NORAD_CAT_ID":"47777","MEAN_MOTION":"15.06397404","TLE_LINE2":"2 47777  53.0563 193.3616 0001694  78.5054 281.6126 15.06397404 36626","ARG_OF_PERICENTER":"78.5054","DECAY_DATE":null,"PERIAPSIS":"546.048","ELEMENT_SET_NO":"999","EPOCH":"2021-10-21T21:35:55.678272","LAUNCH_DATE":"2021-03-04","SEMIMAJOR_AXIS":"6925.357","TIME_SYSTEM":"UTC","EPHEMERIS_TYPE":"0","RA_OF_ASC_NODE":"193.3616","TLE_LINE1":"1 47777U 21017BH  21294.89994998 -.00000570  00000-0 -19374-4 0  9998","REV_AT_EPOCH":"3662","APOAPSIS":"548.395","MEAN_MOTION_DOT":"-0.00000570","PERIOD":"95.592","CENTER_NAME":"EARTH","OBJECT_NAME":"STARLINK-2210","RCS_SIZE":"LARGE","ECCENTRICITY":"0.00016940"},{"GP_ID":"187839680","MEAN_MOTION_DDOT":"0.0000000000000","OBJECT_ID":"2021-017BJ","SITE":"AFETR","FILE":"3176920","MEAN_ANOMALY":"291.3070","REF_FRAME":"TEME","MEAN_ELEMENT_THEORY":"SGP4","BSTAR":"0.00005545900000","INCLINATION":"53.0561","CLASSIFICATION_TYPE":"U","COUNTRY_CODE":"US","NORAD_CAT_ID":"47778","OBJECT_TYPE":"PAYLOAD","DECAY_DATE":null,"TLE_LINE2":"2 47778  53.0561 193.3779 0001743  68.8105 291.3070 15.06400051 36628","ARG_OF_PERICENTER":"68.8105","MEAN_MOTION":"15.06400051","LAUNCH_DATE":"2021-03-04","EPOCH":"2021-10-21T22:23:40.439616","SEMIMAJOR_AXIS":"6925.348","PERIAPSIS":"546.006","ELEMENT_SET_NO":"999","EPHEMERIS_TYPE":"0","TIME_SYSTEM":"UTC","RA_OF_ASC_NODE":"193.3779","MEAN_MOTION_DOT":"0.00000545","APOAPSIS":"548.420","TLE_LINE1":"1 47778U 21017BJ  21294.93310694  .00000545  00000-0  55459-4 0  9993","REV_AT_EPOCH":"3662","CENTER_NAME":"EARTH","PERIOD":"95.592","OBJECT_NAME":"STARLINK-2211","RCS_SIZE":"LARGE","ECCENTRICITY":"0.00017430"},{"COUNTRY_CODE":"US","NORAD_CAT_ID":"47779","OBJECT_TYPE":"PAYLOAD","CLASSIFICATION_TYPE":"U","BSTAR":"-0.00006520000000","INCLINATION":"53.0550","REF_FRAME":"TEME","MEAN_ELEMENT_THEORY":"SGP4","SITE":"AFETR","FILE":"3176920","MEAN_ANOMALY":"297.2622","OBJECT_ID":"2021-017BK","MEAN_MOTION_DDOT":"0.0000000000000","GP_ID":"187840430","ECCENTRICITY":"0.00017170","RCS_SIZE":"LARGE","OBJECT_NAME":"STARLINK-2212","CENTER_NAME":"EARTH","PERIOD":"95.593","MEAN_MOTION_DOT":"-0.00001252","APOAPSIS":"548.441","TLE_LINE1":"1 47779U 21017BK  21294.94786778 -.00001252  00000-0 -65200-4 0  9998","REV_AT_EPOCH":"3663","TIME_SYSTEM":"UTC","EPHEMERIS_TYPE":"0","RA_OF_ASC_NODE":"193.1319","LAUNCH_DATE":"2021-03-04","EPOCH":"2021-10-21T22:44:55.776192","SEMIMAJOR_AXIS":"6925.387","PERIAPSIS":"546.063","ELEMENT_SET_NO":"999","DECAY_DATE":null,"TLE_LINE2":"2 47779  53.0550 193.1319 0001717  62.8542 297.2622 15.06387591 36637","MEAN_MOTION":"15.06387591","ARG_OF_PERICENTER":"62.8542"},{"RCS_SIZE":"LARGE","ECCENTRICITY":"0.00016380","PERIOD":"95.593","CENTER_NAME":"EARTH","OBJECT_NAME":"STARLINK-2213","RA_OF_ASC_NODE":"193.1255","TIME_SYSTEM":"UTC","EPHEMERIS_TYPE":"0","REV_AT_EPOCH":"3666","TLE_LINE1":"1 47780U 21017BL  21294.95060501 -.00001525  00000-0 -83548-4 0  9998","APOAPSIS":"548.394","MEAN_MOTION_DOT":"-0.00001525","ARG_OF_PERICENTER":"66.9562","TLE_LINE2":"2 47780  53.0555 193.1255 0001638  66.9562 293.1600 15.06385112 36663","MEAN_MOTION":"15.06385112","DECAY_DATE":null,"PERIAPSIS":"546.125","ELEMENT_SET_NO":"999","SEMIMAJOR_AXIS":"6925.394","LAUNCH_DATE":"2021-03-04","EPOCH":"2021-10-21T22:48:52.272864","CLASSIFICATION_TYPE":"U","OBJECT_TYPE":"PAYLOAD","NORAD_CAT_ID":"47780","COUNTRY_CODE":"US","MEAN_ELEMENT_THEORY":"SGP4","REF_FRAME":"TEME","INCLINATION":"53.0555","BSTAR":"-0.00008354800000","OBJECT_ID":"2021-017BL","MEAN_ANOMALY":"293.1600","FILE":"3176920","SITE":"AFETR","GP_ID":"187840682","MEAN_MOTION_DDOT":"0.0000000000000"},{"APOAPSIS":"548.423","MEAN_MOTION_DOT":"0.00000694","TLE_LINE1":"1 47781U 21017BM  21294.92574674  .00000694  00000-0  65471-4 0  9996","REV_AT_EPOCH":"3661","TIME_SYSTEM":"UTC","EPHEMERIS_TYPE":"0","RA_OF_ASC_NODE":"193.2396","LAUNCH_DATE":"2021-03-04","EPOCH":"2021-10-21T22:13:04.518336","SEMIMAJOR_AXIS":"6925.349","PERIAPSIS":"546.005","ELEMENT_SET_NO":"999","DECAY_DATE":null,"ARG_OF_PERICENTER":"68.4777","TLE_LINE2":"2 47781  53.0558 193.2396 0001746  68.4777 291.6398 15.06399844 36618","MEAN_MOTION":"15.06399844","ECCENTRICITY":"0.00017460","RCS_SIZE":"LARGE","OBJECT_NAME":"STARLINK-2223","CENTER_NAME":"EARTH","PERIOD":"95.592","SITE":"AFETR","FILE":"3176920","MEAN_ANOMALY":"291.6398","OBJECT_ID":"2021-017BM","MEAN_MOTION_DDOT":"0.0000000000000","GP_ID":"187840927","COUNTRY_CODE":"US","NORAD_CAT_ID":"47781","OBJECT_TYPE":"PAYLOAD","CLASSIFICATION_TYPE":"U","BSTAR":"0.00006547100000","INCLINATION":"53.0558","REF_FRAME":"TEME","MEAN_ELEMENT_THEORY":"SGP4"}];
